STARLINK-2479           
1 48136U 21027AW  26068.57033071  .00004915  00000+0  17793-3 0  9990
2 48136  53.1600 166.0339 0001330 102.6554 257.4596 15.30207688272499
JINJUSAT-1B             
1 63210U 25052A   26068.66363707  .00019955  00000+0  68430-3 0  9998
2 63210  97.4113 325.4613 0005550  82.1930 277.9941 15.30194857 54866
