[{"OBJECT_NAME":"STARLINK-2479","OBJECT_ID":"2021-027AW","EPOCH":"2026-03-09T13:41:16.573344","MEAN_MOTION":15.30207688,"ECCENTRICITY":0.000133,"INCLINATION":53.16,"RA_OF_ASC_NODE":166.0339,"ARG_OF_PERICENTER":102.6554,"MEAN_ANOMALY":257.4596,"EPHEMERIS_TYPE":0,"CLASSIFICATION_TYPE":"U","NORAD_CAT_ID":48136,"ELEMENT_SET_NO":999,"REV_AT_EPOCH":27249,"BSTAR":0.00017793,"MEAN_MOTION_DOT":4.915e-5,"MEAN_MOTION_DDOT":0},{"OBJECT_NAME":"JINJUSAT-1B","OBJECT_ID":"2025-052A","EPOCH":"2026-03-09T15:55:38.242848","MEAN_MOTION":15.30194857,"ECCENTRICITY":0.00055504,"INCLINATION":97.4113,"RA_OF_ASC_NODE":325.4613,"ARG_OF_PERICENTER":82.193,"MEAN_ANOMALY":277.9941,"EPHEMERIS_TYPE":0,"CLASSIFICATION_TYPE":"U","NORAD_CAT_ID":63210,"ELEMENT_SET_NO":999,"REV_AT_EPOCH":5486,"BSTAR":0.00068430401,"MEAN_MOTION_DOT":0.00019955,"MEAN_MOTION_DDOT":0}]
